{
    "Stratton": {
        "region":       "East",
        "zipcode":      "05155",
        "reportLink":   "https://www.stratton.com/the-mountain/mountain-report#/",
        "numTrails":    99
    },
    "Killington": {
        "region":       "East",
        "zipcode":      "05751",
        "reportLink":   "https://www.killington.com/the-mountain/conditions-weather/current-conditions-weather",
        "numTrails":    155
    },
    "Pico": {
        "region":       "East",
        "zipcode":      "05701",
        "reportLink":   "https://www.picomountain.com/the-mountain/conditions-weather/current-conditions-weather",
        "numTrails":    58
    },
    "Sugarbush Resort": {
        "region":       "East",
        "zipcode":      "05674",
        "reportLink":   "https://www.sugarbush.com/mountain/snow-report/",
        "numTrails":    111
    },
    "Snowshoe Mountain": {
        "region":       "East",
        "zipcode":      "26209",
        "reportLink":   "https://www.snowshoemtn.com/mountain-info/mountain-report#/",
        "numTrails":    61
    },
    "Sunday River": {
        "region":       "East",
        "zipcode":      "04261",
        "reportLink":   "https://www.sundayriver.com/mountain-report",
        "numTrails":    135
    },
    "Sugarloaf": {
        "region":       "East",
        "zipcode":      "04947",
        "reportLink":   "https://www.sugarloaf.com/conditions-and-cams",
        "numTrails":    162
    },
    "Loon Mountain": {
        "region":       "East",
        "zipcode":      "03251",
        "reportLink":   "https://www.loonmtn.com/conditions",
        "numTrails":    61
    },
    "Boyne Highlands": {
        "region":       "Midwest",
        "zipcode":      "49740",
        "reportLink":   "https://www.boynehighlands.com/conditions-winter",
        "numTrails":    55
    },
    "Boyne Mountains": {
        "region":       "Midwest",
        "zipcode":      "49713",
        "reportLink":   "https://www.boynemountain.com/current-conditions",
        "numTrails":    60
    },
    "Steamboat": {
        "region":       "Rockies",
        "zipcode":      "80487",
        "reportLink":   "https://www.steamboat.com/the-mountain/mountain-report#/",
        "numTrails":    169
    },
    "Aspen Snowmass": {
        "region":       "Rockies",
        "zipcode":      "81615",
        "reportLink":   "https://www.aspensnowmass.com/our-mountains/snow-report",
        "numTrails":    98
    },
    "Winter Park Resort": {
        "region":       "Rockies",
        "zipcode":      "80482",
        "reportLink":   "https://www.winterparkresort.com/the-mountain/mountain-report#/",
        "numTrails":    166
    },
    "Copper Mountain": {
        "region":       "Rockies",
        "zipcode":      "80443",
        "reportLink":   "https://www.coppercolorado.com/the-mountain/conditions-weather/snow-report",
        "numTrails":    149
    },
    "Arapahoe Basin Ski Area": {
        "region":       "Rockies",
        "zipcode":      "80435",
        "reportLink":   "https://www.arapahoebasin.com/snow-conditions/",
        "numTrails":    145
    },
    "Eldora Mountain Resort": {
        "region":       "Rockies",
        "zipcode":      "80466",
        "reportLink":   "https://www.eldora.com/the-mountain/conditions-weather/current-conditions-forecast",
        "numTrails":    63
    },
    "Big Sky Resort": {
        "region":       "Rockies",
        "zipcode":      "59716",
        "reportLink":   "https://bigskyresort.com/current-conditions",
        "numTrails":    310
    },
    "Jackson Hole Moutnain Resort": {
        "region":       "Rockies",
        "zipcode":      "83025",
        "reportLink":   "https://www.jacksonhole.com/mountain-status.html",
        "numTrails":    133
    },
    "Taos Ski Valley": {
        "region":       "Rockies",
        "zipcode":      "87525",
        "reportLink":   "https://www.skitaos.com/ski-ride/cams-conditions",
        "numTrails":    110
    },
    "Deer Valley Resort": {
        "region":       "Rockies",
        "zipcode":      "84060",
        "reportLink":   "https://www.deervalley.com/explore-the-mountain/mountain-report#/",
        "numTrails":    103
    },
    "Solitude Mountain Resort": {
        "region":       "Rockies",
        "zipcode":      "84121",
        "reportLink":   "https://www.solitudemountain.com/mountain-and-village/conditions-and-maps#/",
        "numTrails":    82
    },
    "Brighton": {
        "region":       "Rockies",
        "zipcode":      "84121",
        "reportLink":   "https://brightonresort.com/conditions",
        "numTrails":    66
    },
    "Alta": {
        "region":       "Rockies",
        "zipcode":      "84092",
        "reportLink":   "https://www.alta.com/weather",
        "numTrails":    119
    },
    "Snowbird": {
        "region":       "Rockies",
        "zipcode":      "84092",
        "reportLink":   "https://www.snowbird.com/mountain-report/",
        "numTrails":    140
    },
    "Squaw Valley Alpine Meadows": {
        "region":       "West",
        "zipcode":      "96146",
        "reportLink":   "https://squawalpine.com/mountain-information/snow-weather-reports-lake-tahoe",
        "numTrails":    270
    },
    "June Mountain": {
        "region":       "West",
        "zipcode":      "93529",
        "reportLink":   "https://www.junemountain.com/winter/mountain-information/mountain-information",
        "numTrails":    45
    },
    "Mammoth Mountain": {
        "region":       "West",
        "zipcode":      "93546",
        "reportLink":   "https://www.mammothmountain.com/winter/mountain-information",
        "numTrails":    161
    },
    "Big Bear Mountain Resort": {
        "region":       "West",
        "zipcode":      "92315",
        "reportLink":   "https://www.bigbearmountainresort.com/winter/mountain-information/mountain-info/mountain-report",
        "numTrails":    41
    },
    "Crystal Mountain": {
        "region":       "West",
        "zipcode":      "98022",
        "reportLink":   "https://www.crystalmountainresort.com/the-mountain/mountain-report-and-webcams#/",
        "numTrails":    85
    },
    "The Summit at Snoqualmie": {
        "region":       "West",
        "zipcode":      "98068",
        "reportLink":   "https://summitatsnoqualmie.com/conditions",
        "numTrails":    115
    }
}